FENGYUN 1C DEB          
1 30144U 99025SZ  15119.78082302  .00000430  00000-0  37140-3 0  9999
2 30144  99.2681 154.6477 0130716 357.0477  61.6940 13.88162221419783
FENGYUN 1C DEB          
1 30145U 99025TA  15120.01859728  .00002830  00000-0  21295-2 0  9991
2 30145  99.3550 119.1424 0111544 297.3342 130.8636 13.92296845419767
FENGYUN 1C DEB          
1 30146U 99025TB  15120.41161038  .00000765  00000-0  64732-3 0  9995
2 30146  98.0581  64.4632 0186982  48.3876  68.1886 13.82290298417847
FENGYUN 1C DEB          
1 30147U 99025TC  15120.12994191  .00004752  00000-0  28642-2 0  9997
2 30147  98.8605 342.7997 0150785 199.2446 287.2435 14.01640762420227
FENGYUN 1C DEB          
1 30148U 99025TD  15120.18924154  .00000480  00000-0  43987-3 0  9990
2 30148  99.4290 198.0637 0141716  75.6731 311.0815 13.83565881418240
FENGYUN 1C DEB          
1 30149U 99025TE  15119.59019139  .00009617  00000-0  17385-2 0  9995
2 30149  99.0546 340.3015 0076412   9.6643  20.2688 14.64738896436584
FENGYUN 1C DEB          
1 30150U 99025TF  15120.19662722  .00000546  00000-0  49653-3 0  9993
2 30150  99.0893  25.3259 0153696 347.7348 166.8258 13.82566353418158
FENGYUN 1C DEB          
1 30151U 99025TG  15119.12182980  .00000594  00000-0  55868-3 0  9996
2 30151  99.4194 161.3001 0168925 157.2763 267.5487 13.79334261416900
FENGYUN 1C DEB          
1 30152U 99025TH  15120.34572016  .00002185  00000-0  18373-2 0  9993
2 30152  99.1430  27.2332 0190459  83.2434  41.3273 13.80993116416530
FENGYUN 1C DEB          
1 30153U 99025TJ  15119.38934341  .00000982  00000-0  95285-3 0  9990
2 30153 100.4233  53.7052 0212424  79.1381  42.4393 13.72882214414702
FENGYUN 1C DEB          
1 30154U 99025TK  15119.62888828  .00001287  00000-0  11931-2 0  9990
2 30154  98.4475 161.1075 0196723 278.9990 244.5056 13.75641923415226
FENGYUN 1C DEB          
1 30155U 99025TL  15119.84078234  .00002255  00000-0  24061-2 0  9991
2 30155  99.8027 103.6667 0276292 110.5178 252.5842 13.59701060409745
FENGYUN 1C DEB          
1 30156U 99025TM  15120.03856618  .00001398  00000-0  13639-2 0  9991
2 30156  98.8931 286.2414 0212664 121.2015 358.2088 13.71262446414026
FENGYUN 1C DEB          
1 30157U 99025TN  15118.51848985  .00002635  00000-0  12405-2 0  9995
2 30157  98.9561 132.2748 0048675 288.2690 224.1873 14.20213418427633
FENGYUN 1C DEB          
1 30158U 99025TP  15119.36850759  .00036231  00000-0  13605-1 0  9993
2 30158  98.6512 164.9969 0097569 223.2728 200.7192 14.28808877416933
FENGYUN 1C DEB          
1 30160U 99025TR  15120.00610145  .00000495  00000-0  68629-3 0  9993
2 30160  98.8403 129.5192 0356067 147.7107 271.7952 13.38763903404629
FENGYUN 1C DEB          
1 30161U 99025TS  15119.95620331  .00001665  00000-0  21584-2 0  9992
2 30161 100.4675 249.5976 0351781 180.1260 297.0545 13.40845055404680
FENGYUN 1C DEB          
1 30162U 99025TT  15120.51307964  .00001516  00000-0  19735-2 0  9991
2 30162  99.4405 322.0533 0341472 267.1097 144.4281 13.41832796405014
FENGYUN 1C DEB          
1 30163U 99025TU  15120.36848042  .00000971  00000-0  13992-2 0  9995
2 30163  98.7076  41.2416 0386883 199.4265 284.6382 13.31046086402474
FENGYUN 1C DEB          
1 30164U 99025TV  15120.03436259  .00009788  00000-0  74386-2 0  9992
2 30164  99.4705 298.4188 0443439 234.3671 121.5405 13.55956470404037
FENGYUN 1C DEB          
1 30167U 99025TY  15119.52643797  .00001657  00000-0  46621-3 0  9993
2 30167  99.0634 292.1221 0163380 123.1568 275.1011 14.39792038434460
FENGYUN 1C DEB          
1 30168U 99025TZ  15120.16677093  .00002780  00000-0  10946-2 0  9990
2 30168  97.3906   3.5844 0153497  50.5442  99.3376 14.23533852428723
FENGYUN 1C DEB          
1 30169U 99025UA  15120.66933712  .00002770  00000-0  78101-3 0  9996
2 30169  98.3406 283.2148 0351843  97.0887 267.0906 14.15185223424802
FENGYUN 1C DEB          
1 30170U 99025UB  15120.10645175  .00000178  00000-0  15611-3 0  9997
2 30170  99.1170 165.1110 0073377 186.4674 228.1876 13.96928338422226
FENGYUN 1C DEB          
1 30171U 99025UC  15119.92066144  .00000375  00000-0  26825-3 0  9997
2 30171  98.4540 248.2758 0188256 287.2965  70.7680 13.94656720421759
FENGYUN 1C DEB          
1 30172U 99025UD  15120.40574028  .00001754  00000-0  12281-2 0  9990
2 30172  99.0164  50.7989 0088196 112.8272   4.2637 13.97825026421739
FENGYUN 1C DEB          
1 30173U 99025UE  15119.54893803  .00001548  00000-0  10580-2 0  9990
2 30173  99.2420 134.8991 0105347 219.0415 293.9751 13.98660438421695
FENGYUN 1C DEB          
1 30174U 99025UF  15119.70589358  .00002963  00000-0  13254-2 0  9999
2 30174  98.9123 147.9922 0052433 276.1565 149.6447 14.22669110428036
FENGYUN 1C DEB          
1 30175U 99025UG  15120.44904083  .00000472  00000-0  44774-3 0  9994
2 30175  99.4388  84.7251 0150423   9.4612 106.1042 13.81258700417633
FENGYUN 1C DEB          
1 30177U 99025UJ  15120.24426108  .00000923  00000-0  66630-3 0  9997
2 30177  98.5784 120.6109 0483557 181.4641 247.1617 13.54191545408689
FENGYUN 1C DEB          
1 30178U 99025UK  15119.91825348  .00001087  00000-0  13616-2 0  9996
2 30178 102.2830 106.0042 0306194 230.4766 186.0224 13.49603015407276
FENGYUN 1C DEB          
1 30180U 99025UM  15120.19226821  .00007595  00000-0  12952-2 0  9994
2 30180  99.0325 346.2202 0083622 327.2539 161.0866 14.67023041437429
FENGYUN 1C DEB          
1 30181U 99025UN  15118.54552500  .00002076  00000-0  11388-2 0  9998
2 30181  99.0571 118.4615 0049834 242.4544 235.9675 14.12317250425560
FENGYUN 1C DEB          
1 30182U 99025UP  15119.90828655 -.00000070  00000-0 -18206-4 0  9999
2 30182  99.2716  96.3140 0076659 135.2909 279.9985 13.95125518422024
FENGYUN 1C DEB          
1 30183U 99025UQ  15120.50314572  .00000746  00000-0  46940-3 0  9999
2 30183  99.1076 119.3482 0027639 340.5704 172.1840 14.07386741425158
FENGYUN 1C DEB          
1 30189U 99025UW  15102.69727303  .17730113  35358-5  20331-2 0  9995
2 30189  98.9960 158.0768 0017711 253.2877 235.8677 16.36349135444584
FENGYUN 1C DEB          
1 30190U 99025UX  15119.61591264  .00003320  00000-0  59203-3 0  9999
2 30190  98.9704 359.1606 0137910 213.5073 175.8952 14.61778558439144
FENGYUN 1C DEB          
1 30191U 99025UY  15120.08935966  .00002612  00000-0  56814-3 0  9992
2 30191  98.8103 268.3483 0144597 251.9473 168.3454 14.52671447437411
FENGYUN 1C DEB          
1 30192U 99025UZ  15120.12268353  .00026589  00000-0  29050-2 0  9997
2 30192  98.9918 330.8603 0042182 342.6445 142.1067 14.87191625436973
FENGYUN 1C DEB          
1 30193U 99025VA  15120.52376425  .00001040  00000-0  33836-3 0  9995
2 30193  98.7362 219.9802 0127752 107.9074 317.7415 14.36367953433775
FENGYUN 1C DEB          
1 30194U 99025VB  15119.84887558  .00004383  00000-0  17730-2 0  9990
2 30194 101.2617 231.1014 0058193  29.5423  91.1035 14.27622534428852
FENGYUN 1C DEB          
1 30195U 99025VC  15120.51505396  .00187541  00000-0  75221-2 0  9991
2 30195 102.0331 342.5821 0022386 193.3274 166.7357 15.23916519437433
FENGYUN 1C DEB          
1 30196U 99025VD  15120.14836853  .00000088  00000-0  54384-4 0  9995
2 30196  98.7543 201.1898 0087095 184.6004 233.9359 14.24902785431169
FENGYUN 1C DEB          
1 30197U 99025VE  15119.28034145  .00001222  00000-0  51427-3 0  9998
2 30197  98.9255 224.2720 0065693 309.6429 103.2229 14.26552961430626
FENGYUN 1C DEB          
1 30198U 99025VF  15119.91906547  .00001501  00000-0  57112-3 0  9990
2 30198  98.3480   0.0250 0148281 209.1581 216.5874 14.26451566430013
FENGYUN 1C DEB          
1 30199U 99025VG  15119.07834012  .00001543  00000-0  64057-3 0  9997
2 30199  98.7617 153.4866 0095292 181.2712 234.0748 14.25489565429972
FENGYUN 1C DEB          
1 30200U 99025VH  15119.22488420  .00000250  00000-0  12384-3 0  9995
2 30200  98.8732 206.7460 0152250  47.0207 314.3616 14.19754534429039
FENGYUN 1C DEB          
1 30201U 99025VJ  15120.53173839  .00000552  00000-0  29390-3 0  9997
2 30201  99.4596 325.1245 0032333  75.4879 338.2132 14.17728287428234
FENGYUN 1C DEB          
1 30202U 99025VK  15119.81824317  .00002314  00000-0  10221-2 0  9991
2 30202  98.8838 144.3877 0061434 245.3942 166.5075 14.23274338428487
FENGYUN 1C DEB          
1 30205U 99025VN  15120.28859756  .00000214  00000-0  21120-3 0  9990
2 30205  98.9789  17.0366 0122022 261.5420 218.5229 13.85855322418828
FENGYUN 1C DEB          
1 30206U 99025VP  15119.80404542  .00000685  00000-0  19713-3 0  9993
2 30206  98.5263 148.9487 0161640 250.1092 108.2617 14.40845376435047
FENGYUN 1C DEB          
1 30207U 99025VQ  15120.21983617  .00000191  00000-0  17854-3 0  9992
2 30207  98.5708 206.5512 0263678 196.4172 220.4469 13.77445802416519
FENGYUN 1C DEB          
1 30208U 99025VR  15119.35745278  .00000680  00000-0  35289-3 0  9990
2 30208  98.8569 146.7254 0034284 290.9964 196.1983 14.17867559428036
FENGYUN 1C DEB          
1 30209U 99025VS  15119.03009933  .00000285  00000-0  19128-3 0  9992
2 30209  98.9812 148.9483 0041952  42.1642  16.1712 14.08185399425434
FENGYUN 1C DEB          
1 30210U 99025VT  15118.83451163  .00000891  00000-0  60112-3 0  9999
2 30210  99.0582  63.9123 0061837  65.9735 347.9290 14.02191834423089
FENGYUN 1C DEB          
1 30212U 99025VV  15119.81673579  .00000688  00000-0  53096-3 0  9994
2 30212  99.3038 210.6694 0097157 292.9118  66.1811 13.94318099421390
FENGYUN 1C DEB          
1 30213U 99025VW  15118.84716456  .00001439  00000-0  10029-2 0  9992
2 30213  99.1822  97.6084 0084503 144.7430 277.6505 13.98594239421461
FENGYUN 1C DEB          
1 30214U 99025VX  15120.05853006  .00001910  00000-0  10372-2 0  9997
2 30214  99.0040 145.1315 0025545 347.0216  69.2792 14.13431060425883
FENGYUN 1C DEB          
1 30216U 99025VZ  15120.14509258  .00005739  00000-0  11710-2 0  9996
2 30216  99.0754 349.3796 0093737  14.7290 106.8043 14.58617860436428
